{
  "type": "FeatureCollection",
  "features": [
    {
      "type": "Feature",
      "properties": {
        "norad_id": 43823,
        "name": "GEO-KOMPSAT-2A",
        "group": "weather",
        "lat": 0.02654737406309634,
        "lon": 165.2621292200386,
        "alt_km": 35784.67268486047,
        "timestamp": "2025-12-15T20:48:53.528160+00:00",
        "meta_object_name": "GEO-KOMPSAT-2A",
        "meta_object_id": "2018-100A",
        "meta_epoch": "2025-12-14T19:09:50.685120",
        "meta_mean_motion": 1.00272904,
        "meta_eccentricity": 4.857e-05,
        "meta_inclination": 0.0478,
        "meta_ra_of_asc_node": 139.8747,
        "meta_arg_of_pericenter": 333.1425,
        "meta_mean_anomaly": 26.433,
        "meta_ephemeris_type": 0,
        "meta_classification_type": "U",
        "meta_norad_cat_id": 43823,
        "meta_element_set_no": 999,
        "meta_rev_at_epoch": 2578,
        "meta_bstar": 0,
        "meta_mean_motion_dot": -3.24e-06,
        "meta_mean_motion_ddot": 0,
        "tle_line1": "1 43823U 18100A   25348.79850330 -.00000324  00000+0  00000+0 0  9995",
        "tle_line2": "2 43823   0.0478 139.8747 0000485 333.1425  26.4330  1.00272904 25783"
      },
      "geometry": {
        "type": "Point",
        "coordinates": [
          165.2621292200386,
          0.02654737406309634
        ]
      }
    },
    {
      "type": "Feature",
      "properties": {
        "norad_id": 44387,
        "name": "METEOR-M2 2",
        "group": "weather",
        "lat": -22.17384121208047,
        "lon": 145.97385201170613,
        "alt_km": 815.6967534297146,
        "timestamp": "2025-12-15T20:48:53.528181+00:00",
        "meta_object_name": "METEOR-M2 2",
        "meta_object_id": "2019-038A",
        "meta_epoch": "2025-12-14T21:56:59.871840",
        "meta_mean_motion": 14.24293826,
        "meta_eccentricity": 0.00013702,
        "meta_inclination": 98.8973,
        "meta_ra_of_asc_node": 328.67,
        "meta_arg_of_pericenter": 143.6266,
        "meta_mean_anomaly": 216.5006,
        "meta_ephemeris_type": 0,
        "meta_classification_type": "U",
        "meta_norad_cat_id": 44387,
        "meta_element_set_no": 999,
        "meta_rev_at_epoch": 33506,
        "meta_bstar": 0.00021510797,
        "meta_mean_motion_dot": 4.51e-06,
        "meta_mean_motion_ddot": 0,
        "tle_line1": "1 44387U 19038A   25348.91458185  .00000451  00000+0  21511-3 0  9992",
        "tle_line2": "2 44387  98.8973 328.6700 0001370 143.6266 216.5006 14.24293826335065"
      },
      "geometry": {
        "type": "Point",
        "coordinates": [
          145.97385201170613,
          -22.17384121208047
        ]
      }
    },
    {
      "type": "Feature",
      "properties": {
        "norad_id": 47719,
        "name": "ARKTIKA-M 1",
        "group": "weather",
        "lat": 60.802254447059205,
        "lon": -161.12710063796584,
        "alt_km": 36495.144805436976,
        "timestamp": "2025-12-15T20:48:53.528203+00:00",
        "meta_object_name": "ARKTIKA-M 1",
        "meta_object_id": "2021-016A",
        "meta_epoch": "2025-12-09T14:03:23.859648",
        "meta_mean_motion": 2.00631311,
        "meta_eccentricity": 0.7202538,
        "meta_inclination": 63.1769,
        "meta_ra_of_asc_node": 84.4506,
        "meta_arg_of_pericenter": 269.1116,
        "meta_mean_anomaly": 15.6235,
        "meta_ephemeris_type": 0,
        "meta_classification_type": "U",
        "meta_norad_cat_id": 47719,
        "meta_element_set_no": 999,
        "meta_rev_at_epoch": 3498,
        "meta_bstar": 0,
        "meta_mean_motion_dot": -6.1e-07,
        "meta_mean_motion_ddot": 0,
        "tle_line1": "1 47719U 21016A   25343.58569282 -.00000061  00000+0  00000+0 0  9996",
        "tle_line2": "2 47719  63.1769  84.4506 7202538 269.1116  15.6235  2.00631311 34985"
      },
      "geometry": {
        "type": "Point",
        "coordinates": [
          -161.12710063796584,
          60.802254447059205
        ]
      }
    },
    {
      "type": "Feature",
      "properties": {
        "norad_id": 49008,
        "name": "FENGYUN 3E",
        "group": "weather",
        "lat": 66.41084031789397,
        "lon": -169.00085583957707,
        "alt_km": 819.5408885662437,
        "timestamp": "2025-12-15T20:48:53.528218+00:00",
        "meta_object_name": "FENGYUN 3E",
        "meta_object_id": "2021-062A",
        "meta_epoch": "2025-12-14T23:59:40.614432",
        "meta_mean_motion": 14.19880294,
        "meta_eccentricity": 5.899e-05,
        "meta_inclination": 98.748,
        "meta_ra_of_asc_node": 349.4942,
        "meta_arg_of_pericenter": 247.6587,
        "meta_mean_anomaly": 112.4527,
        "meta_ephemeris_type": 0,
        "meta_classification_type": "U",
        "meta_norad_cat_id": 49008,
        "meta_element_set_no": 999,
        "meta_rev_at_epoch": 23044,
        "meta_bstar": 9.0382834e-05,
        "meta_mean_motion_dot": 1.48e-06,
        "meta_mean_motion_ddot": 0,
        "tle_line1": "1 49008U 21062A   25348.99977563  .00000148  00000+0  90383-4 0  9998",
        "tle_line2": "2 49008  98.7480 349.4942 0000589 247.6587 112.4527 14.19880294230446"
      },
      "geometry": {
        "type": "Point",
        "coordinates": [
          -169.00085583957707,
          66.41084031789397
        ]
      }
    },
    {
      "type": "Feature",
      "properties": {
        "norad_id": 51850,
        "name": "GOES 18",
        "group": "weather",
        "lat": 0.011666396230480694,
        "lon": -100.026615811171,
        "alt_km": 35785.047697784365,
        "timestamp": "2025-12-15T20:48:53.528230+00:00",
        "meta_object_name": "GOES 18",
        "meta_object_id": "2022-021A",
        "meta_epoch": "2025-12-14T17:54:12.928608",
        "meta_mean_motion": 1.0027115,
        "meta_eccentricity": 4.94e-05,
        "meta_inclination": 0.0108,
        "meta_ra_of_asc_node": 167.1867,
        "meta_arg_of_pericenter": 151.1278,
        "meta_mean_anomaly": 256.9021,
        "meta_ephemeris_type": 0,
        "meta_classification_type": "U",
        "meta_norad_cat_id": 51850,
        "meta_element_set_no": 999,
        "meta_rev_at_epoch": 474,
        "meta_bstar": 0,
        "meta_mean_motion_dot": 1.16e-06,
        "meta_mean_motion_ddot": 0,
        "tle_line1": "1 51850U 22021A   25348.74598297  .00000116  00000+0  00000+0 0  9995",
        "tle_line2": "2 51850   0.0108 167.1867 0000494 151.1278 256.9021  1.00271150  4745"
      },
      "geometry": {
        "type": "Point",
        "coordinates": [
          -100.026615811171,
          0.011666396230480694
        ]
      }
    },
    {
      "type": "Feature",
      "properties": {
        "norad_id": 54234,
        "name": "NOAA 21 (JPSS-2)",
        "group": "weather",
        "lat": 64.13513108903254,
        "lon": 124.6502896624503,
        "alt_km": 820.486551890267,
        "timestamp": "2025-12-15T20:48:53.528241+00:00",
        "meta_object_name": "NOAA 21 (JPSS-2)",
        "meta_object_id": "2022-150A",
        "meta_epoch": "2025-12-14T22:17:11.445216",
        "meta_mean_motion": 14.19524908,
        "meta_eccentricity": 0.00021352,
        "meta_inclination": 98.7463,
        "meta_ra_of_asc_node": 285.2095,
        "meta_arg_of_pericenter": 33.8959,
        "meta_mean_anomaly": 326.2353,
        "meta_ephemeris_type": 0,
        "meta_classification_type": "U",
        "meta_norad_cat_id": 54234,
        "meta_element_set_no": 999,
        "meta_rev_at_epoch": 16040,
        "meta_bstar": 6.7240246e-05,
        "meta_mean_motion_dot": 9.8e-07,
        "meta_mean_motion_ddot": 0,
        "tle_line1": "1 54234U 22150A   25348.92860469  .00000098  00000+0  67240-4 0  9993",
        "tle_line2": "2 54234  98.7463 285.2095 0002135  33.8959 326.2353 14.19524908160404"
      },
      "geometry": {
        "type": "Point",
        "coordinates": [
          124.6502896624503,
          64.13513108903254
        ]
      }
    },
    {
      "type": "Feature",
      "properties": {
        "norad_id": 54743,
        "name": "METEOSAT-12 (MTG-I1)",
        "group": "weather",
        "lat": 0.17183355608782283,
        "lon": 36.70868709316279,
        "alt_km": 35791.36367372297,
        "timestamp": "2025-12-15T20:48:53.528253+00:00",
        "meta_object_name": "METEOSAT-12 (MTG-I1)",
        "meta_object_id": "2022-170C",
        "meta_epoch": "2025-12-14T22:09:38.644416",
        "meta_mean_motion": 1.00269613,
        "meta_eccentricity": 0.00016058,
        "meta_inclination": 0.6893,
        "meta_ra_of_asc_node": 23.9928,
        "meta_arg_of_pericenter": 238.5832,
        "meta_mean_anomaly": 153.396,
        "meta_ephemeris_type": 0,
        "meta_classification_type": "U",
        "meta_norad_cat_id": 54743,
        "meta_element_set_no": 999,
        "meta_rev_at_epoch": 1113,
        "meta_bstar": 0,
        "meta_mean_motion_dot": 1.2e-07,
        "meta_mean_motion_ddot": 0,
        "tle_line1": "1 54743U 22170C   25348.92336394  .00000012  00000+0  00000+0 0  9997",
        "tle_line2": "2 54743   0.6893  23.9928 0001605 238.5832 153.3960  1.00269613 11138"
      },
      "geometry": {
        "type": "Point",
        "coordinates": [
          36.70868709316279,
          0.17183355608782283
        ]
      }
    }
  ]
}